stk.v.4.3 

BEGIN Ephemeris 
 
NumberOfEphemerisPoints		146 
ScenarioEpoch	    3 Sep 2020 21: 0:47.325593233 
InterpolationMethod		Lagrange 
InterpolationOrder		5 
CentralBody				Earth 
CoordinateSystem			TEME 
CoordinateSystemEpoch	  3 Sep 2020 21: 0:47.325593233 
DistanceUnit			Kilometers 
 
EphemerisTimePosVel 
 
       0.00000000   -5528.90821540   -4546.99668440       0.03672676  0.304945268 -0.355915674  7.449129938
 END Ephemeris 
